1 41179U 15081A   17153.87054613 +.00000001 +00000-0 +38604-4 0  9994,2 41179 047.0043 052.7245 0002932 268.5451 091.5097 14.54585597076810
1 41179U 15081A   17154.14529946 -.00000001 +00000-0 +38142-4 0  9999,2 41179 047.0043 051.4345 0002926 269.5081 090.5468 14.54585688076856
1 41179U 15081A   17154.83218258 -.00000007 +00000-0 +36797-4 0  9996,2 41179 047.0043 048.2091 0002918 271.6209 088.4340 14.54585933076954
1 41179U 15081A   17155.51906571 -.00000011 +00000-0 +35789-4 0  9999,2 41179 047.0043 044.9837 0002917 274.1376 085.9174 14.54586138077054
1 41179U 15081A   17155.86250727 -.00000018 +00000-0 +34239-4 0  9998,2 41179 047.0043 043.3710 0002905 275.1328 084.9225 14.54586209077103
1 41179U 15081A   17156.13726052 -.00000021 +00000-0 +33551-4 0  9998,2 41179 047.0043 042.0809 0002897 276.1003 083.9551 14.54586263077144
1 41179U 15081A   17156.89283174 -.00000018 +00000-0 +34183-4 0  9992,2 41179 047.0043 038.5329 0002889 278.4975 081.5582 14.54586506077255
1 41179U 15081A   17157.16758491 -.00000014 +00000-0 +35089-4 0  9994,2 41179 047.0043 037.2428 0002880 279.4701 080.5857 14.54586605077298
1 41179U 15081A   17157.78577945 -.00000017 +00000-0 +34415-4 0  9990,2 41179 047.0043 034.3398 0002871 281.3925 078.6637 14.54586772077381
1 41179U 15081A   17158.74741531 -.00000018 +00000-0 +34160-4 0  9999,2 41179 047.0044 029.8242 0002849 284.5126 075.5442 14.54587049077526
1 41179U 15081A   17159.43429799 -.00000017 +00000-0 +34369-4 0  9995,2 41179 047.0044 026.5989 0002839 286.8965 073.1607 14.54587237077620
1 41179U 15081A   17159.91511584 -.00000020 +00000-0 +33709-4 0  9993,2 41179 047.0044 024.3411 0002819 288.3840 071.6738 14.54587345077698
1 41179U 15081A   17160.94543968 -.00000031 +00000-0 +31270-4 0  9992,2 41179 047.0044 019.5030 0002777 291.4708 068.5880 14.54587559077849
1 41179U 15081A   17161.08281618 -.00000034 +00000-0 +30429-4 0  9997,2 41179 047.0044 018.8579 0002777 292.0035 068.0554 14.54587578077865
1 41179U 15081A   17161.90707517 -.00000044 +00000-0 +28181-4 0  9992,2 41179 047.0044 014.9875 0002746 294.6992 065.3606 14.54587733077981
1 41179U 15081A   17162.59395754 -.00000049 +00000-0 +27064-4 0  9998,2 41179 047.0043 011.7620 0002725 296.8390 063.2215 14.54587872078085
1 41179U 15081A   17162.93739869 -.00000046 +00000-0 +27635-4 0  9996,2 41179 047.0043 010.1493 0002710 297.9774 062.0836 14.54587974078133
1 41179U 15081A   17163.62428091 -.00000042 +00000-0 +28784-4 0  9997,2 41179 047.0043 006.9238 0002685 300.0908 059.9709 14.54588180078234
1 41179U 15081A   17163.83034561 -.00000043 +00000-0 +28500-4 0  9992,2 41179 047.0043 005.9563 0002672 300.7739 059.2882 14.54588220078262
1 41179U 15081A   17164.58591599 -.00000049 +00000-0 +27070-4 0  9991,2 41179 047.0042 002.4083 0002645 303.2704 056.7927 14.54588376078376
1 41179U 15081A   17164.92935707 -.00000040 +00000-0 +29166-4 0  9991,2 41179 047.0042 000.7956 0002628 304.5076 055.5560 14.54588501078429
1 41179U 15081A   17165.54755092 -.00000039 +00000-0 +29307-4 0  9992,2 41179 047.0042 357.8926 0002606 306.4620 053.6024 14.54588639078510
1 41179U 15081A   17165.89099198 -.00000041 +00000-0 +28943-4 0  9996,2 41179 047.0042 356.2800 0002585 307.5754 052.4895 14.54588701078568
1 41179U 15081A   17166.30312937  .00000127  00000-0  29424-4 0  9991,2 41179  47.0069 354.3322 0003030 306.8035  53.3115 14.54588859 78621
1 41179U 15081A   17166.92131498 -.00000057 +00000-0 +25097-4 0  9995,2 41179 047.0041 351.4417 0002541 311.0751 048.9913 14.54588819078715
1 41179U 15081A   17167.53950872 -.00000056 +00000-0 +25318-4 0  9993,2 41179 047.0041 348.5387 0002521 313.3029 046.7644 14.54588959078801
1 41179U 15081A   17167.88294971 -.00000050 +00000-0 +26863-4 0  9992,2 41179 047.0041 346.9260 0002505 314.6407 045.4272 14.54589053078853
1 41179U 15081A   17167.95163789 -.00000050 +00000-0 +26895-4 0  9997,2 41179 047.0041 346.6035 0002503 314.9271 045.1409 14.54589073078862
1 41179U 15081A   17168.56983148 -.00000054 +00000-0 +25959-4 0  9998,2 41179 047.0041 343.7005 0002475 316.8806 043.1884 14.54589189078953
1 41179U 15081A   17169.53146589 -.00000054 +00000-0 +25914-4 0  9997,2 41179 047.0041 339.1848 0002429 320.1619 039.9087 14.54589394079098
1 41179U 15081A   17169.87490674 -.00000051 +00000-0 +26560-4 0  9996,2 41179 047.0041 337.5721 0002409 321.5440 038.5272 14.54589485079143
1 41179U 15081A   17170.56178833 -.00000057 +00000-0 +25143-4 0  9996,2 41179 047.0041 334.3465 0002380 324.0365 036.0358 14.54589620079245
1 41179U 15081A   17170.90522913 -.00000053 +00000-0 +26116-4 0  9993,2 41179 047.0041 332.7339 0002362 325.4196 034.6535 14.54589713079293
1 41179U 15081A   17171.45473432 -.00000056 +00000-0 +25404-4 0  9997,2 41179 047.0041 330.1535 0002336 327.2274 032.8465 14.54589819079379
1 41179U 15081A   17171.59211062 -.00000059 +00000-0 +24613-4 0  9995,2 41179 047.0041 329.5084 0002326 327.7346 032.3396 14.54589840079398
1 41179U 15081A   17172.55374459 -.00000065 +00000-0 +23303-4 0  9994,2 41179 047.0041 324.9928 0002267 331.0036 029.0721 14.54590032079538
1 41179U 15081A   17172.89718525 -.00000061 +00000-0 +24334-4 0  9998,2 41179 047.0040 323.3801 0002244 332.3468 027.7297 14.54590138079583
1 41179U 15081A   17173.58406654 -.00000067 +00000-0 +22952-4 0  9992,2 41179 047.0040 320.1546 0002202 334.7016 025.3760 14.54590273079683
1 41179U 15081A   17173.85881907 -.00000064 +00000-0 +23645-4 0  9997,2 41179 047.0040 318.8645 0002188 335.9354 024.1427 14.54590342079727
1 41179U 15081A   17174.82045274 -.00000062 +00000-0 +23924-4 0  9992,2 41179 047.0039 314.3488 0002126 339.3780 020.7018 14.54590543079860
1 41179U 15081A   17175.57602191 -.00000065 +00000-0 +23282-4 0  9992,2 41179 047.0038 310.8007 0002074 341.8583 018.2227 14.54590687079973
1 41179U 15081A   17175.85077432 -.00000061 +00000-0 +24358-4 0  9998,2 41179 047.0038 309.5106 0002059 343.0050 017.0765 14.54590771080019
1 41179U 15081A   17176.53765535 -.00000064 +00000-0 +23436-4 0  9991,2 41179 047.0038 306.2850 0002018 345.6987 014.3840 14.54590883080110
1 41179U 15081A   17176.88109584 -.00000062 +00000-0 +24118-4 0  9991,2 41179 047.0037 304.6723 0001999 347.1968 012.8865 14.54590963080167
1 41179U 15081A   17177.56797675 -.00000057 +00000-0 +25106-4 0  9993,2 41179 047.0037 301.4468 0001957 349.8991 010.1853 14.54591109080269
1 41179U 15081A   17177.84272908 -.00000052 +00000-0 +26271-4 0  9990,2 41179 047.0037 300.1566 0001943 351.2112 008.8738 14.54591196080308
1 41179U 15081A   17178.80436214 -.00000051 +00000-0 +26512-4 0  9996,2 41179 047.0036 295.6409 0001881 355.1099 004.9767 14.54591404080445
1 41179U 15081A   17179.55993084 -.00000052 +00000-0 +26418-4 0  9998,2 41179 047.0036 292.0929 0001830 358.1018 001.9859 14.54591581080558
1 41179U 15081A   17179.76599503 -.00000050 +00000-0 +26860-4 0  9998,2 41179 047.0036 291.1253 0001820 359.0387 001.0493 14.54591639080588
1 41179U 15081A   17180.52156362 -.00000055 +00000-0 +25646-4 0  9992,2 41179 047.0036 287.5773 0001771 002.1642 357.9250 14.54591787080699
1 41179U 15081A   17180.72762779 -.00000052 +00000-0 +26239-4 0  9995,2 41179 047.0036 286.6097 0001764 003.2222 356.8673 14.54591845080722
1 41179U 15081A   17181.75794843 -.00000063 +00000-0 +23868-4 0  9993,2 41179 047.0035 281.7716 0001697 007.8396 352.2514 14.54592034080873
1 41179U 15081A   17182.30745269 -.00000066 +00000-0 +23109-4 0  9994,2 41179 047.0034 279.1912 0001662 010.2285 349.8633 14.54592144080953
1 41179U 15081A   17182.71958087 -.00000064 +00000-0 +23486-4 0  9999,2 41179 047.0034 277.2561 0001637 012.1832 347.9091 14.54592250081016
1 41179U 15081A   17183.61252517 -.00000057 +00000-0 +25266-4 0  9994,2 41179 047.0033 273.0631 0001584 016.6856 343.4080 14.54592476081146
1 41179U 15081A   17183.68121319 -.00000056 +00000-0 +25348-4 0  9996,2 41179 047.0033 272.7406 0001583 017.0269 343.0668 14.54592495081154
1 41179U 15081A   17184.23071725 -.00000055 +00000-0 +25554-4 0  9991,2 41179 047.0032 270.1601 0001545 019.4552 340.6390 14.54592609081232
1 41179U 15081A   17184.57415732 -.00000059 +00000-0 +24649-4 0  9996,2 41179 047.0031 268.5475 0001524 021.3458 338.7489 14.54592654081287
1 41179U 15081A   17184.64284534 -.00000059 +00000-0 +24689-4 0  9992,2 41179 047.0031 268.2249 0001522 021.7148 338.3800 14.54592671081294
1 41179U 15081A   17185.26103732 -.00000063 +00000-0 +23773-4 0  9999,2 41179 047.0030 265.3219 0001483 024.9352 335.1603 14.54592778081380
1 41179U 15081A   17185.60447734 -.00000060 +00000-0 +24513-4 0  9990,2 41179 047.0029 263.7093 0001468 026.7891 333.3068 14.54592859081432
1 41179U 15081A   17185.67316533 -.00000060 +00000-0 +24439-4 0  9996,2 41179 047.0029 263.3868 0001466 027.0606 333.0354 14.54592873081446
1 41179U 15081A   17186.22266927 -.00000059 +00000-0 +24722-4 0  9992,2 41179 047.0028 260.8064 0001436 029.8194 330.2771 14.54592977081520
1 41179U 15081A   17186.49742121 -.00000057 +00000-0 +25218-4 0  9995,2 41179 047.0028 259.5162 0001417 031.3993 328.6975 14.54593038081568
1 41179U 15081A   17187.52774089 -.00000056 +00000-0 +25380-4 0  9997,2 41179 047.0026 254.6779 0001356 037.3146 322.7833 14.54593224081716
1 41179U 15081A   17188.28330854 -.00000056 +00000-0 +25300-4 0  9991,2 41179 047.0026 251.1298 0001315 041.6817 318.4167 14.54593385081824
1 41179U 15081A   17189.58837981 -.00000056 +00000-0 +25445-4 0  9998,2 41179 047.0024 245.0014 0001261 049.4873 310.6121 14.54593616082011
1 41179U 15081A   17190.55001102 -.00000056 +00000-0 +25335-4 0  9993,2 41179 047.0023 240.4857 0001221 055.8482 304.2517 14.54593811082157
1 41179U 15081A   17191.37426617 -.00000057 +00000-0 +25102-4 0  9999,2 41179 047.0022 236.6151 0001186 061.3048 298.7955 14.54593998082272
1 41179U 15081A   17192.19852125 -.00000064 +00000-0 +23540-4 0  9999,2 41179 047.0021 232.7444 0001159 067.0730 293.0277 14.54594137082398
1 41179U 15081A   17192.54196086 -.00000062 +00000-0 +24005-4 0  9990,2 41179 047.0021 231.1318 0001155 069.2648 290.8359 14.54594214082447
